HAWK-2A                 
1 47505U 21006CW  26068.67946547  .00008113  00000+0  25431-3 0  9990
2 47505  97.2459 115.6184 0006450 187.1463 172.9689 15.33304498284242
STARLINK-35718          
1 66894U 25283S   26068.15011130  .00039207  00000+0  13287-2 0  9990
2 66894  53.1623  26.5203 0001386  41.6262 318.4844 15.30205121 15763
